ONEWEB-0547             
1 56049U 23043D   26039.18652378  .00000110  00000+0  23426-3 0  9997
2 56049  87.9188 269.7049 0001471  89.3254 270.8049 13.21826882141184
ONEWEB-0548             
1 56050U 23043E   26039.08129435 -.00000048  00000+0 -15838-3 0  9991
2 56050  87.9005 254.4702 0001430  70.6190 289.5095 13.16595433141972
ONEWEB-0549             
1 56051U 23043F   26039.17910659  .00000030  00000+0  41295-4 0  9994
2 56051  87.9186 269.7195 0001491  91.5760 268.5544 13.21824201141183
ONEWEB-0550             
1 56052U 23043G   26039.09025598  .00000010  00000+0 -70420-5 0  9997
2 56052  87.9186 269.7325 0001560  77.1698 282.9610 13.21826104141173
ONEWEB-0551             
1 56053U 23043H   26039.08594029 -.00000060  00000+0 -19371-3 0  9999
2 56053  87.8978 285.0066 0001433  94.0975 266.0319 13.15550712139426
ONEWEB-0552             
1 56054U 23043J   26039.08530636  .00000015  00000+0  52844-5 0  9996
2 56054  87.9186 269.7415 0001271  85.5672 274.5607 13.21827679141170
ONEWEB-0553             
1 56055U 23043K   26039.06308953 -.00000017  00000+0 -78175-4 0  9998
2 56055  87.9007 254.4755 0001875  76.1317 284.0022 13.16594873141980
ONEWEB-0554             
1 56056U 23043L   26039.12641583  .00000091  00000+0  20318-3 0  9990
2 56056  87.9004 254.4746 0001478  75.6194 284.5101 13.16594577141977
ONEWEB-0555             
1 56057U 23043M   26039.08842855  .00000012  00000+0 -12900-5 0  9995
2 56057  87.9004 254.4663 0002058  81.5215 278.6149 13.16594702141977
ONEWEB-0557             
1 56058U 23043N   26039.10267650  .00000032  00000+0  49885-4 0  9995
2 56058  87.9003 254.4754 0002264  55.9901 304.1445 13.16594744141974
ONEWEB-0558             
1 56059U 23043P   26039.07872469  .00000102  00000+0  21605-3 0  9999
2 56059  87.9181 269.7359 0001505 106.4528 253.6772 13.21828156141183
ONEWEB-0559             
1 56060U 23043Q   26039.06721920  .00000030  00000+0  40948-4 0  9997
2 56060  87.9185 269.7321 0001315  94.1846 265.9438 13.21825468141192
ONEWEB-0566             
1 56061U 23043R   26039.06062958  .00000079  00000+0  15921-3 0  9992
2 56061  87.9186 269.7322 0001403  98.2186 261.9108 13.21823915141178
ONEWEB-0568             
1 56062U 23043S   26039.12009240  .00000054  00000+0  10798-3 0  9995
2 56062  87.9006 254.4616 0001824  86.0731 274.0609 13.16594927141998
ONEWEB-0574             
1 56063U 23043T   26039.12973949  .00000085  00000+0  17483-3 0  9994
2 56063  87.9195 269.7081 0001547  75.9905 284.1400 13.21828506141221
ONEWEB-0575             
1 56064U 23043U   26039.11375639  .00000091  00000+0  20313-3 0  9999
2 56064  87.9002 254.4612 0001720  74.0372 286.0949 13.16595014141982
ONEWEB-0576             
1 56065U 23043V   26039.09475725 -.00000010  00000+0 -59995-4 0  9996
2 56065  87.9006 254.4678 0001649  80.4165 279.7152 13.16594462141970
