[{"OBJECT_NAME":"ONEWEB-0547","OBJECT_ID":"2023-043D","EPOCH":"2026-02-08T04:28:35.654592","MEAN_MOTION":13.21826882,"ECCENTRICITY":0.00014714,"INCLINATION":87.9188,"RA_OF_ASC_NODE":269.7049,"ARG_OF_PERICENTER":89.3254,"MEAN_ANOMALY":270.8049,"EPHEMERIS_TYPE":0,"CLASSIFICATION_TYPE":"U","NORAD_CAT_ID":56049,"ELEMENT_SET_NO":999,"REV_AT_EPOCH":14118,"BSTAR":0.00023425705,"MEAN_MOTION_DOT":1.1e-6,"MEAN_MOTION_DDOT":0},{"OBJECT_NAME":"ONEWEB-0548","OBJECT_ID":"2023-043E","EPOCH":"2026-02-08T01:57:03.831840","MEAN_MOTION":13.16595433,"ECCENTRICITY":0.00014307,"INCLINATION":87.9005,"RA_OF_ASC_NODE":254.4702,"ARG_OF_PERICENTER":70.619,"MEAN_ANOMALY":289.5095,"EPHEMERIS_TYPE":0,"CLASSIFICATION_TYPE":"U","NORAD_CAT_ID":56050,"ELEMENT_SET_NO":999,"REV_AT_EPOCH":14197,"BSTAR":-0.00015837824,"MEAN_MOTION_DOT":-4.8e-7,"MEAN_MOTION_DDOT":0},{"OBJECT_NAME":"ONEWEB-0549","OBJECT_ID":"2023-043F","EPOCH":"2026-02-08T04:17:54.809376","MEAN_MOTION":13.21824201,"ECCENTRICITY":0.00014917,"INCLINATION":87.9186,"RA_OF_ASC_NODE":269.7195,"ARG_OF_PERICENTER":91.576,"MEAN_ANOMALY":268.5544,"EPHEMERIS_TYPE":0,"CLASSIFICATION_TYPE":"U","NORAD_CAT_ID":56051,"ELEMENT_SET_NO":999,"REV_AT_EPOCH":14118,"BSTAR":4.1295401e-5,"MEAN_MOTION_DOT":3.0e-7,"MEAN_MOTION_DDOT":0},{"OBJECT_NAME":"ONEWEB-0550","OBJECT_ID":"2023-043G","EPOCH":"2026-02-08T02:09:58.116672","MEAN_MOTION":13.21826104,"ECCENTRICITY":0.000156,"INCLINATION":87.9186,"RA_OF_ASC_NODE":269.7325,"ARG_OF_PERICENTER":77.1698,"MEAN_ANOMALY":282.961,"EPHEMERIS_TYPE":0,"CLASSIFICATION_TYPE":"U","NORAD_CAT_ID":56052,"ELEMENT_SET_NO":999,"REV_AT_EPOCH":14117,"BSTAR":-7.04198e-6,"MEAN_MOTION_DOT":1.0e-7,"MEAN_MOTION_DDOT":0},{"OBJECT_NAME":"ONEWEB-0551","OBJECT_ID":"2023-043H","EPOCH":"2026-02-08T02:03:45.241056","MEAN_MOTION":13.15550712,"ECCENTRICITY":0.0001433,"INCLINATION":87.8978,"RA_OF_ASC_NODE":285.0066,"ARG_OF_PERICENTER":94.0975,"MEAN_ANOMALY":266.0319,"EPHEMERIS_TYPE":0,"CLASSIFICATION_TYPE":"U","NORAD_CAT_ID":56053,"ELEMENT_SET_NO":999,"REV_AT_EPOCH":13942,"BSTAR":-0.00019370611,"MEAN_MOTION_DOT":-6.0e-7,"MEAN_MOTION_DDOT":0},{"OBJECT_NAME":"ONEWEB-0552","OBJECT_ID":"2023-043J","EPOCH":"2026-02-08T02:02:50.469504","MEAN_MOTION":13.21827679,"ECCENTRICITY":0.00012717,"INCLINATION":87.9186,"RA_OF_ASC_NODE":269.7415,"ARG_OF_PERICENTER":85.5672,"MEAN_ANOMALY":274.5607,"EPHEMERIS_TYPE":0,"CLASSIFICATION_TYPE":"U","NORAD_CAT_ID":56054,"ELEMENT_SET_NO":999,"REV_AT_EPOCH":14117,"BSTAR":5.284448e-6,"MEAN_MOTION_DOT":1.5e-7,"MEAN_MOTION_DDOT":0},{"OBJECT_NAME":"ONEWEB-0553","OBJECT_ID":"2023-043K","EPOCH":"2026-02-08T01:30:50.935392","MEAN_MOTION":13.16594873,"ECCENTRICITY":0.00018758,"INCLINATION":87.9007,"RA_OF_ASC_NODE":254.4755,"ARG_OF_PERICENTER":76.1317,"MEAN_ANOMALY":284.0022,"EPHEMERIS_TYPE":0,"CLASSIFICATION_TYPE":"U","NORAD_CAT_ID":56055,"ELEMENT_SET_NO":999,"REV_AT_EPOCH":14198,"BSTAR":-7.8174741e-5,"MEAN_MOTION_DOT":-1.7e-7,"MEAN_MOTION_DDOT":0},{"OBJECT_NAME":"ONEWEB-0554","OBJECT_ID":"2023-043L","EPOCH":"2026-02-08T03:02:02.327712","MEAN_MOTION":13.16594577,"ECCENTRICITY":0.0001478,"INCLINATION":87.9004,"RA_OF_ASC_NODE":254.4746,"ARG_OF_PERICENTER":75.6194,"MEAN_ANOMALY":284.5101,"EPHEMERIS_TYPE":0,"CLASSIFICATION_TYPE":"U","NORAD_CAT_ID":56056,"ELEMENT_SET_NO":999,"REV_AT_EPOCH":14197,"BSTAR":0.00020317846,"MEAN_MOTION_DOT":9.1e-7,"MEAN_MOTION_DDOT":0},{"OBJECT_NAME":"ONEWEB-0555","OBJECT_ID":"2023-043M","EPOCH":"2026-02-08T02:07:20.226720","MEAN_MOTION":13.16594702,"ECCENTRICITY":0.00020586,"INCLINATION":87.9004,"RA_OF_ASC_NODE":254.4663,"ARG_OF_PERICENTER":81.5215,"MEAN_ANOMALY":278.6149,"EPHEMERIS_TYPE":0,"CLASSIFICATION_TYPE":"U","NORAD_CAT_ID":56057,"ELEMENT_SET_NO":999,"REV_AT_EPOCH":14197,"BSTAR":-1.290021e-6,"MEAN_MOTION_DOT":1.2e-7,"MEAN_MOTION_DDOT":0},{"OBJECT_NAME":"ONEWEB-0557","OBJECT_ID":"2023-043N","EPOCH":"2026-02-08T02:27:51.249600","MEAN_MOTION":13.16594744,"ECCENTRICITY":0.00022643,"INCLINATION":87.9003,"RA_OF_ASC_NODE":254.4754,"ARG_OF_PERICENTER":55.9901,"MEAN_ANOMALY":304.1445,"EPHEMERIS_TYPE":0,"CLASSIFICATION_TYPE":"U","NORAD_CAT_ID":56058,"ELEMENT_SET_NO":999,"REV_AT_EPOCH":14197,"BSTAR":4.9884615e-5,"MEAN_MOTION_DOT":3.2e-7,"MEAN_MOTION_DDOT":0},{"OBJECT_NAME":"ONEWEB-0558","OBJECT_ID":"2023-043P","EPOCH":"2026-02-08T01:53:21.813216","MEAN_MOTION":13.21828156,"ECCENTRICITY":0.00015054,"INCLINATION":87.9181,"RA_OF_ASC_NODE":269.7359,"ARG_OF_PERICENTER":106.4528,"MEAN_ANOMALY":253.6772,"EPHEMERIS_TYPE":0,"CLASSIFICATION_TYPE":"U","NORAD_CAT_ID":56059,"ELEMENT_SET_NO":999,"REV_AT_EPOCH":14118,"BSTAR":0.00021605072,"MEAN_MOTION_DOT":1.02e-6,"MEAN_MOTION_DDOT":0},{"OBJECT_NAME":"ONEWEB-0559","OBJECT_ID":"2023-043Q","EPOCH":"2026-02-08T01:36:47.738880","MEAN_MOTION":13.21825468,"ECCENTRICITY":0.00013152,"INCLINATION":87.9185,"RA_OF_ASC_NODE":269.7321,"ARG_OF_PERICENTER":94.1846,"MEAN_ANOMALY":265.9438,"EPHEMERIS_TYPE":0,"CLASSIFICATION_TYPE":"U","NORAD_CAT_ID":56060,"ELEMENT_SET_NO":999,"REV_AT_EPOCH":14119,"BSTAR":4.0948234e-5,"MEAN_MOTION_DOT":3.0e-7,"MEAN_MOTION_DDOT":0},{"OBJECT_NAME":"ONEWEB-0566","OBJECT_ID":"2023-043R","EPOCH":"2026-02-08T01:27:18.395712","MEAN_MOTION":13.21823915,"ECCENTRICITY":0.00014038,"INCLINATION":87.9186,"RA_OF_ASC_NODE":269.7322,"ARG_OF_PERICENTER":98.2186,"MEAN_ANOMALY":261.9108,"EPHEMERIS_TYPE":0,"CLASSIFICATION_TYPE":"U","NORAD_CAT_ID":56061,"ELEMENT_SET_NO":999,"REV_AT_EPOCH":14117,"BSTAR":0.00015920575,"MEAN_MOTION_DOT":7.9e-7,"MEAN_MOTION_DDOT":0},{"OBJECT_NAME":"ONEWEB-0568","OBJECT_ID":"2023-043S","EPOCH":"2026-02-08T02:52:55.983360","MEAN_MOTION":13.16594927,"ECCENTRICITY":0.00018242,"INCLINATION":87.9006,"RA_OF_ASC_NODE":254.4616,"ARG_OF_PERICENTER":86.0731,"MEAN_ANOMALY":274.0609,"EPHEMERIS_TYPE":0,"CLASSIFICATION_TYPE":"U","NORAD_CAT_ID":56062,"ELEMENT_SET_NO":999,"REV_AT_EPOCH":14199,"BSTAR":0.00010798433,"MEAN_MOTION_DOT":5.4e-7,"MEAN_MOTION_DDOT":0},{"OBJECT_NAME":"ONEWEB-0574","OBJECT_ID":"2023-043T","EPOCH":"2026-02-08T03:06:49.491936","MEAN_MOTION":13.21828506,"ECCENTRICITY":0.00015471,"INCLINATION":87.9195,"RA_OF_ASC_NODE":269.7081,"ARG_OF_PERICENTER":75.9905,"MEAN_ANOMALY":284.14,"EPHEMERIS_TYPE":0,"CLASSIFICATION_TYPE":"U","NORAD_CAT_ID":56063,"ELEMENT_SET_NO":999,"REV_AT_EPOCH":14122,"BSTAR":0.00017482654,"MEAN_MOTION_DOT":8.5e-7,"MEAN_MOTION_DDOT":0},{"OBJECT_NAME":"ONEWEB-0575","OBJECT_ID":"2023-043U","EPOCH":"2026-02-08T02:43:48.552096","MEAN_MOTION":13.16595014,"ECCENTRICITY":0.00017208,"INCLINATION":87.9002,"RA_OF_ASC_NODE":254.4612,"ARG_OF_PERICENTER":74.0372,"MEAN_ANOMALY":286.0949,"EPHEMERIS_TYPE":0,"CLASSIFICATION_TYPE":"U","NORAD_CAT_ID":56064,"ELEMENT_SET_NO":999,"REV_AT_EPOCH":14198,"BSTAR":0.00020312826,"MEAN_MOTION_DOT":9.1e-7,"MEAN_MOTION_DDOT":0},{"OBJECT_NAME":"ONEWEB-0576","OBJECT_ID":"2023-043V","EPOCH":"2026-02-08T02:16:27.026400","MEAN_MOTION":13.16594462,"ECCENTRICITY":0.00016497,"INCLINATION":87.9006,"RA_OF_ASC_NODE":254.4678,"ARG_OF_PERICENTER":80.4165,"MEAN_ANOMALY":279.7152,"EPHEMERIS_TYPE":0,"CLASSIFICATION_TYPE":"U","NORAD_CAT_ID":56065,"ELEMENT_SET_NO":999,"REV_AT_EPOCH":14197,"BSTAR":-5.9994539e-5,"MEAN_MOTION_DOT":-1.0e-7,"MEAN_MOTION_DDOT":0}]
